#cP2020  9 17  0  0  0.00000000      96 d     IGb14 FIT AIUB
## 2123 345600.00000000   900.00000000 59109 0.0000000000000
+   77   G01G02G03G04G05G06G07G08G09G10G11G12G13G15G16G17G18
+        G19G20G21G22G23G24G25G26G27G28G29G30G31G32R01R02R03
+        R04R05R07R08R11R12R13R14R15R16R17R18R19R20R21R22R23
+        R24R26E01E02E03E04E05E07E08E09E11E12E13E14E15E18E19
+        E21E24E25E26E27E30E31E33E36  0  0  0  0  0  0  0  0
++         5  5  5  6  5  5  5  6  6  5  5  5  6  6  5  6  5
++         6  5  5  5  5  5  5  5  6  5  6  5  5  7  6  5  5
++         5  5  5  5  5  5  5  5  5  5  5  5  6  6  5  5  5
++         5  5  5  5  6  6  6  6  6  6  5  5  5  7  5  6  6
++         5  5  5  5  5  5  5  5  5  0  0  0  0  0  0  0  0
%c M  cc GPS ccc cccc cccc cccc cccc ccccc ccccc ccccc ccccc
%c cc cc ccc ccc cccc cccc cccc cccc ccccc ccccc ccccc ccccc
%f  1.2500000  1.025000000  0.00000000000  0.000000000000000
%f  0.0000000  0.000000000  0.00000000000  0.000000000000000
%i    0    0    0    0      0      0      0      0         0
%i    0    0    0    0      0      0      0      0         0
/* Center for Orbit Determination in Europe (CODE)          
/* Rapid GNSS orbits and clocks for year-day 20261          
/* Note: Middle day of a 3-day arc GRE solution             
/* PCV:IGS14      OL/AL:FES2014b NONE     YN ORB:CoN CLK:CoN
*  2020  9 17 23 15  0.00000000
PG01 -16456.585758  -4426.316364  20225.720605     35.909061
PG02  14486.297352  21695.754304  -4429.000685   -517.845694
PG03 -19596.173711   7256.266328  16255.854282   -301.986755
PG04 -25933.187275     -3.126807  -5821.210331   -137.040877
PG05   9683.217112  12618.389341 -21400.407716    -21.336214
PG06   4769.398376  24902.651412   7896.224290   -326.527695
PG07  -9819.016742  13706.946957 -20077.630143   -374.733955
PG08 -25489.574518  -6213.115496  -4958.570202    -48.345942
PG09 -19465.210945   9078.076708 -15691.736855   -287.546337
PG10   9938.420957 -22984.121258   8552.221749   -457.294537
PG11 -22565.620291  -9213.244200   9645.026793   -161.453485
PG12  19460.982060  -4603.586847  17168.642331     65.848343
PG13  19992.554820  13363.866688 -11523.816438     46.272023
PG15  26143.686288   3849.524862  -4572.403231   -202.964974
PG16  -9942.920910 -11253.624196 -22102.742306   -210.497354
PG17  -2212.002997  14746.836610  22408.979456    327.403372
PG18   9061.406355 -14882.526677 -20045.972990    292.068305
PG19   5886.288818  15435.702124  20522.512516   -103.504095
PG20  15360.167207 -21118.509241  -4139.749698    526.706411
PG21 -14954.408453 -21765.231004   4978.014655     48.267424
PG22 -17394.227694   -533.985604  20227.065919   -753.329074
PG23  16200.705131 -21001.610608  -1253.690178   -295.261860
PG24  18226.308090   6743.469787  18055.748485    -18.660279
PG25  19411.391608 -15522.515649   8750.216031     50.607334
PG26     86.994092 -20792.865551 -16422.927517    280.567914
PG27 -18574.916255 -12369.846943 -14802.785285   -398.033496
PG28 -10496.816262  22249.291149  10789.187880    677.627687
PG29  22186.463527  -4946.031879 -13820.018359   -196.957934
PG30  -2796.849103  22032.983815 -14351.342325   -303.694986
PG31  -5518.996114 -25087.462663   5665.370410    -69.359613
PG32    564.671108 -15352.994944  21756.895011    347.537255
PR01  16537.661902 -14071.693674  13393.284620     67.706795
PR02  -4314.719184 -10022.038186  23092.112092    446.040064
PR03 -19681.188811   -415.326370  16288.487346     22.194021
PR04 -23723.341507   9375.134101    375.762873     54.897603
PR05 -14542.383803  13795.376191 -15784.149488     57.732284
PR07  19989.639972     50.622219 -15787.080155    -40.201473
PR08  23699.559013  -9403.991371   -260.310501    -54.637017
PR11  11209.395962 -12010.473214  19554.596165    -38.037814
PR12   6288.771231 -23913.363032   6266.726017    164.621987
PR13  -2494.032937 -22782.904786 -11211.518777    -44.026203
PR14  -9674.540870  -8025.828858 -22178.568864     55.628232
PR15 -11202.813713  11069.746239 -20036.078920    106.963498
PR16  -5510.320525  24364.140914  -5484.667852     -6.442829
PR17 -20961.423044 -13586.195504   5047.195353    358.962765
PR18 -16711.569454  -2270.844499  19165.590404     49.712019
PR19  -4238.400427   9866.841033  23135.466375   -111.645220
PR20  12735.411572  18037.405064  12748.443569   -422.052120
PR21  21019.425007  13154.583920  -6068.959465   -152.912326
PR22  15894.123970   1349.497036 -19891.921680    -73.385985
PR23  -2564.251539 -14138.180861 -21084.003575    332.641171
PR24 -13279.064113 -18163.550350 -11981.379620     13.650846
PR26   8964.373277  16865.610983  16935.977195   -361.644727
PE01  19111.384876  -9749.616259  20403.608063   -942.948572
PE02 -19110.260052   9878.177662 -20326.917354    162.405309
PE03 -29129.979377   4827.765831  -1946.262797   -343.997865
PE04  17730.975894 -15114.670183  18263.120563   -609.212676
PE05 -23603.466739  -8435.925120  15739.429539   -345.241532
PE07   4356.628410  16653.861838 -24077.874432   -437.369977
PE08 -17392.815429  15197.102954 -18505.072340   6119.182560
PE09  -4542.649561 -16468.205900  24173.628207   5927.515220
PE11 -10349.520051 -25479.344220 -10964.683678   5584.566190
PE12   6900.428197 -16516.441400 -23578.247038   5600.395920
PE13  10272.253265  25396.839052  11218.455801    403.740010
PE14 -10878.671463  12020.077931  16842.119183  -1159.473390
PE15  -6627.767159  16635.125190  23574.001573    852.099600
PE18  11901.233546 -18045.950712 -24419.270221  -1267.047860
PE19  29408.513851  -3367.353216   -177.001353     81.078574
PE21  12876.614190  11146.518558  24217.021957   -621.975802
PE24   1419.484569 -26227.355722 -13634.503145   5238.620220
PE25 -12776.567627 -11306.184657 -24174.260331   -516.778449
PE26  21202.875352  18970.014792  -8196.034683   2714.440250
PE27   -990.855477  26069.464638  13998.889474    131.937153
PE30 -14616.862794  25272.138118  -4905.672908   3576.300560
PE31  14219.930558 -25587.789869   4419.444622   -474.195205
PE33  19632.782617   1911.581392 -22068.831366   -462.754893
PE36 -21128.369774 -19234.172138   7722.043509    506.104612
EOF
